ONEWEB-0527             
1 54642U 22166A   25346.27628865  .00000048  00000+0  84353-4 0  9990
2 54642  87.9220 281.2802 0001748  75.5392 284.5936 13.21823852146840
ONEWEB-0528             
1 54643U 22166B   25346.28287572 -.00000251  00000+0 -63972-3 0  9999
2 54643  87.9212 281.2833 0001808  76.4125 283.7211 13.21825717146857
ONEWEB-0539             
1 54644U 22166C   25346.24504220  .00000157  00000+0  34867-3 0  9992
2 54644  87.9221 281.2557 0001976  79.9059 280.2298 13.21826571146846
ONEWEB-0540             
1 54645U 22166D   25346.25175391  .00000121  00000+0  26220-3 0  9992
2 54645  87.9219 281.2925 0001799  82.1389 277.9949 13.21824552146830
ONEWEB-0542             
1 54646U 22166E   25346.25491782 -.00000048  00000+0 -14669-3 0  9992
2 54646  87.9217 281.2502 0001950  87.9995 272.1362 13.21826787146844
ONEWEB-0545             
1 54647U 22166F   25346.29605652  .00000114  00000+0  24364-3 0  9995
2 54647  87.9215 281.2631 0002037  88.3151 271.8216 13.21827140146817
ONEWEB-0580             
1 54648U 22166G   25346.26972763  .00000078  00000+0  15835-3 0  9995
2 54648  87.9218 281.2669 0001768  87.8709 272.2628 13.21825836146851
ONEWEB-0582             
1 54649U 22166H   25346.23681302  .00000133  00000+0  28978-3 0  9993
2 54649  87.9223 281.2664 0001976  92.2532 267.8828 13.21825428146824
ONEWEB-0583             
1 54650U 22166J   25346.24833153  .00000127  00000+0  27604-3 0  9997
2 54650  87.9219 281.2888 0001902  79.8871 280.2478 13.21825188146839
ONEWEB-0584             
1 54651U 22166K   25346.26807020  .00000044  00000+0  75570-4 0  9998
2 54651  87.9219 281.2712 0001693  89.1770 270.9558 13.21824795146822
ONEWEB-0585             
1 54652U 22166L   25346.29275455 -.00000169  00000+0 -44157-3 0  9999
2 54652  87.9217 281.2511 0001681  73.4770 286.6549 13.21825435146838
ONEWEB-0586             
1 54653U 22166M   25346.23021839 -.00000058  00000+0 -17221-3 0  9998
2 54653  87.9208 281.2902 0001679  85.2030 274.9295 13.21830380146822
ONEWEB-0587             
1 54654U 22166N   25346.24010699  .00000129  00000+0  27977-3 0  9998
2 54654  87.9232 281.2424 0001698  64.9069 295.2241 13.21826043146981
ONEWEB-0589             
1 54655U 22166P   25346.30263826  .00000064  00000+0  12455-3 0  9991
2 54655  87.9213 281.2654 0001873 105.4447 254.6894 13.21826725146858
ONEWEB-0590             
1 54656U 22166Q   25346.25148077  .00000164  00000+0  36549-3 0  9997
2 54656  87.9222 281.2521 0001326  76.7594 283.3688 13.21825379146830
ONEWEB-0591             
1 54657U 22166R   25346.26313472  .00000046  00000+0  79826-4 0  9997
2 54657  87.9221 281.2733 0001731  79.6567 280.4762 13.21824525146863
