[{"OBJECT_NAME":"ONEWEB-0527","OBJECT_ID":"2022-166A","EPOCH":"2025-12-12T06:37:51.339360","MEAN_MOTION":13.21823852,"ECCENTRICITY":0.0001748,"INCLINATION":87.922,"RA_OF_ASC_NODE":281.2802,"ARG_OF_PERICENTER":75.5392,"MEAN_ANOMALY":284.5936,"EPHEMERIS_TYPE":0,"CLASSIFICATION_TYPE":"U","NORAD_CAT_ID":54642,"ELEMENT_SET_NO":999,"REV_AT_EPOCH":14684,"BSTAR":8.4352701e-5,"MEAN_MOTION_DOT":4.8e-7,"MEAN_MOTION_DDOT":0},{"OBJECT_NAME":"ONEWEB-0528","OBJECT_ID":"2022-166B","EPOCH":"2025-12-12T06:47:20.462208","MEAN_MOTION":13.21825717,"ECCENTRICITY":0.00018082,"INCLINATION":87.9212,"RA_OF_ASC_NODE":281.2833,"ARG_OF_PERICENTER":76.4125,"MEAN_ANOMALY":283.7211,"EPHEMERIS_TYPE":0,"CLASSIFICATION_TYPE":"U","NORAD_CAT_ID":54643,"ELEMENT_SET_NO":999,"REV_AT_EPOCH":14685,"BSTAR":-0.00063971972,"MEAN_MOTION_DOT":-2.51e-6,"MEAN_MOTION_DDOT":0},{"OBJECT_NAME":"ONEWEB-0539","OBJECT_ID":"2022-166C","EPOCH":"2025-12-12T05:52:51.646080","MEAN_MOTION":13.21826571,"ECCENTRICITY":0.00019766,"INCLINATION":87.9221,"RA_OF_ASC_NODE":281.2557,"ARG_OF_PERICENTER":79.9059,"MEAN_ANOMALY":280.2298,"EPHEMERIS_TYPE":0,"CLASSIFICATION_TYPE":"U","NORAD_CAT_ID":54644,"ELEMENT_SET_NO":999,"REV_AT_EPOCH":14684,"BSTAR":0.00034867001,"MEAN_MOTION_DOT":1.57e-6,"MEAN_MOTION_DDOT":0},{"OBJECT_NAME":"ONEWEB-0540","OBJECT_ID":"2022-166D","EPOCH":"2025-12-12T06:02:31.537824","MEAN_MOTION":13.21824552,"ECCENTRICITY":0.00017996,"INCLINATION":87.9219,"RA_OF_ASC_NODE":281.2925,"ARG_OF_PERICENTER":82.1389,"MEAN_ANOMALY":277.9949,"EPHEMERIS_TYPE":0,"CLASSIFICATION_TYPE":"U","NORAD_CAT_ID":54645,"ELEMENT_SET_NO":999,"REV_AT_EPOCH":14683,"BSTAR":0.00026219756,"MEAN_MOTION_DOT":1.21e-6,"MEAN_MOTION_DDOT":0},{"OBJECT_NAME":"ONEWEB-0542","OBJECT_ID":"2022-166E","EPOCH":"2025-12-12T06:07:04.899648","MEAN_MOTION":13.21826787,"ECCENTRICITY":0.00019506,"INCLINATION":87.9217,"RA_OF_ASC_NODE":281.2502,"ARG_OF_PERICENTER":87.9995,"MEAN_ANOMALY":272.1362,"EPHEMERIS_TYPE":0,"CLASSIFICATION_TYPE":"U","NORAD_CAT_ID":54646,"ELEMENT_SET_NO":999,"REV_AT_EPOCH":14684,"BSTAR":-0.00014668813,"MEAN_MOTION_DOT":-4.8e-7,"MEAN_MOTION_DDOT":0},{"OBJECT_NAME":"ONEWEB-0545","OBJECT_ID":"2022-166F","EPOCH":"2025-12-12T07:06:19.283328","MEAN_MOTION":13.2182714,"ECCENTRICITY":0.00020374,"INCLINATION":87.9215,"RA_OF_ASC_NODE":281.2631,"ARG_OF_PERICENTER":88.3151,"MEAN_ANOMALY":271.8216,"EPHEMERIS_TYPE":0,"CLASSIFICATION_TYPE":"U","NORAD_CAT_ID":54647,"ELEMENT_SET_NO":999,"REV_AT_EPOCH":14681,"BSTAR":0.00024363889,"MEAN_MOTION_DOT":1.14e-6,"MEAN_MOTION_DDOT":0},{"OBJECT_NAME":"ONEWEB-0580","OBJECT_ID":"2022-166G","EPOCH":"2025-12-12T06:28:24.467232","MEAN_MOTION":13.21825836,"ECCENTRICITY":0.00017685,"INCLINATION":87.9218,"RA_OF_ASC_NODE":281.2669,"ARG_OF_PERICENTER":87.8709,"MEAN_ANOMALY":272.2628,"EPHEMERIS_TYPE":0,"CLASSIFICATION_TYPE":"U","NORAD_CAT_ID":54648,"ELEMENT_SET_NO":999,"REV_AT_EPOCH":14685,"BSTAR":0.00015834554,"MEAN_MOTION_DOT":7.8e-7,"MEAN_MOTION_DDOT":0},{"OBJECT_NAME":"ONEWEB-0582","OBJECT_ID":"2022-166H","EPOCH":"2025-12-12T05:41:00.644928","MEAN_MOTION":13.21825428,"ECCENTRICITY":0.00019763,"INCLINATION":87.9223,"RA_OF_ASC_NODE":281.2664,"ARG_OF_PERICENTER":92.2532,"MEAN_ANOMALY":267.8828,"EPHEMERIS_TYPE":0,"CLASSIFICATION_TYPE":"U","NORAD_CAT_ID":54649,"ELEMENT_SET_NO":999,"REV_AT_EPOCH":14682,"BSTAR":0.00028978172,"MEAN_MOTION_DOT":1.33e-6,"MEAN_MOTION_DDOT":0},{"OBJECT_NAME":"ONEWEB-0583","OBJECT_ID":"2022-166J","EPOCH":"2025-12-12T05:57:35.844192","MEAN_MOTION":13.21825188,"ECCENTRICITY":0.00019026,"INCLINATION":87.9219,"RA_OF_ASC_NODE":281.2888,"ARG_OF_PERICENTER":79.8871,"MEAN_ANOMALY":280.2478,"EPHEMERIS_TYPE":0,"CLASSIFICATION_TYPE":"U","NORAD_CAT_ID":54650,"ELEMENT_SET_NO":999,"REV_AT_EPOCH":14683,"BSTAR":0.00027604398,"MEAN_MOTION_DOT":1.27e-6,"MEAN_MOTION_DDOT":0},{"OBJECT_NAME":"ONEWEB-0584","OBJECT_ID":"2022-166K","EPOCH":"2025-12-12T06:26:01.265280","MEAN_MOTION":13.21824795,"ECCENTRICITY":0.00016932,"INCLINATION":87.9219,"RA_OF_ASC_NODE":281.2712,"ARG_OF_PERICENTER":89.177,"MEAN_ANOMALY":270.9558,"EPHEMERIS_TYPE":0,"CLASSIFICATION_TYPE":"U","NORAD_CAT_ID":54651,"ELEMENT_SET_NO":999,"REV_AT_EPOCH":14682,"BSTAR":7.5570044e-5,"MEAN_MOTION_DOT":4.4e-7,"MEAN_MOTION_DDOT":0},{"OBJECT_NAME":"ONEWEB-0585","OBJECT_ID":"2022-166L","EPOCH":"2025-12-12T07:01:33.993120","MEAN_MOTION":13.21825435,"ECCENTRICITY":0.00016812,"INCLINATION":87.9217,"RA_OF_ASC_NODE":281.2511,"ARG_OF_PERICENTER":73.477,"MEAN_ANOMALY":286.6549,"EPHEMERIS_TYPE":0,"CLASSIFICATION_TYPE":"U","NORAD_CAT_ID":54652,"ELEMENT_SET_NO":999,"REV_AT_EPOCH":14683,"BSTAR":-0.00044157273,"MEAN_MOTION_DOT":-1.69e-6,"MEAN_MOTION_DDOT":0},{"OBJECT_NAME":"ONEWEB-0586","OBJECT_ID":"2022-166M","EPOCH":"2025-12-12T05:31:30.868896","MEAN_MOTION":13.2183038,"ECCENTRICITY":0.00016792,"INCLINATION":87.9208,"RA_OF_ASC_NODE":281.2902,"ARG_OF_PERICENTER":85.203,"MEAN_ANOMALY":274.9295,"EPHEMERIS_TYPE":0,"CLASSIFICATION_TYPE":"U","NORAD_CAT_ID":54653,"ELEMENT_SET_NO":999,"REV_AT_EPOCH":14682,"BSTAR":-0.000172215,"MEAN_MOTION_DOT":-5.8e-7,"MEAN_MOTION_DDOT":0},{"OBJECT_NAME":"ONEWEB-0587","OBJECT_ID":"2022-166N","EPOCH":"2025-12-12T05:45:45.243936","MEAN_MOTION":13.21826043,"ECCENTRICITY":0.00016983,"INCLINATION":87.9232,"RA_OF_ASC_NODE":281.2424,"ARG_OF_PERICENTER":64.9069,"MEAN_ANOMALY":295.2241,"EPHEMERIS_TYPE":0,"CLASSIFICATION_TYPE":"U","NORAD_CAT_ID":54654,"ELEMENT_SET_NO":999,"REV_AT_EPOCH":14698,"BSTAR":0.00027976733,"MEAN_MOTION_DOT":1.29e-6,"MEAN_MOTION_DDOT":0},{"OBJECT_NAME":"ONEWEB-0589","OBJECT_ID":"2022-166P","EPOCH":"2025-12-12T07:15:47.945664","MEAN_MOTION":13.21826725,"ECCENTRICITY":0.00018731,"INCLINATION":87.9213,"RA_OF_ASC_NODE":281.2654,"ARG_OF_PERICENTER":105.4447,"MEAN_ANOMALY":254.6894,"EPHEMERIS_TYPE":0,"CLASSIFICATION_TYPE":"U","NORAD_CAT_ID":54655,"ELEMENT_SET_NO":999,"REV_AT_EPOCH":14685,"BSTAR":0.00012454676,"MEAN_MOTION_DOT":6.4e-7,"MEAN_MOTION_DDOT":0},{"OBJECT_NAME":"ONEWEB-0590","OBJECT_ID":"2022-166Q","EPOCH":"2025-12-12T06:02:07.938528","MEAN_MOTION":13.21825379,"ECCENTRICITY":0.00013263,"INCLINATION":87.9222,"RA_OF_ASC_NODE":281.2521,"ARG_OF_PERICENTER":76.7594,"MEAN_ANOMALY":283.3688,"EPHEMERIS_TYPE":0,"CLASSIFICATION_TYPE":"U","NORAD_CAT_ID":54656,"ELEMENT_SET_NO":999,"REV_AT_EPOCH":14683,"BSTAR":0.0003654897,"MEAN_MOTION_DOT":1.64e-6,"MEAN_MOTION_DDOT":0},{"OBJECT_NAME":"ONEWEB-0591","OBJECT_ID":"2022-166R","EPOCH":"2025-12-12T06:18:54.839808","MEAN_MOTION":13.21824525,"ECCENTRICITY":0.0001731,"INCLINATION":87.9221,"RA_OF_ASC_NODE":281.2733,"ARG_OF_PERICENTER":79.6567,"MEAN_ANOMALY":280.4762,"EPHEMERIS_TYPE":0,"CLASSIFICATION_TYPE":"U","NORAD_CAT_ID":54657,"ELEMENT_SET_NO":999,"REV_AT_EPOCH":14686,"BSTAR":7.9826159e-5,"MEAN_MOTION_DOT":4.6e-7,"MEAN_MOTION_DDOT":0}]
